MEAN_MOTION;ECCENTRICITY;INCLINATION;RA_OF_ASC_NODE;ARG_OF_PERICENTER;MEAN_ANOMALY;BSTAR;MEAN_MOTION_DOT;MEAN_MOTION_DDOT;TYPE
12.2473692;0.0002651;52.0013;352.9881;348.3172;11.7616;0.00026784;-6.3E-7;0;Globalstar
12.24737102;0.0002672;52.0013;350.2093;350.8023;9.2777;0.00033832;-5.6E-7;0;Globalstar
12.24737252;0.0002685;52.0012;347.662;352.9628;7.1183;0.00040446;-4.8E-7;0;Globalstar
12.2473725;0.0002687;52.0012;347.4305;353.2065;6.8748;0.00039794;-4.9E-7;0;Globalstar
12.24737293;0.0002695;52.0011;346.5042;354.063;6.0187;0.0004272;-4.6E-7;0;Globalstar
12.24737354;0.0002699;52.0011;345.1148;355.1862;4.8961;0.00045154;-4.3E-7;0;Globalstar
12.24737394;0.0002707;52.001;343.7254;356.4588;3.6242;0.0004607;-4.2E-7;0;Globalstar
12.24737486;0.0002722;52.0008;339.3255;0.1715;359.9135;0.00041415;-4.7E-7;0;Globalstar
12.24737606;0.0002741;52.0008;336.0836;3.2112;356.8754;0.000398;-4.9E-7;0;Globalstar
12.24737769;0.0002764;52.0006;335.3889;3.5352;356.5517;0.00048684;-3.9E-7;0;Globalstar
12.2473788;0.0002766;52.0005;333.3047;5.3944;354.6935;0.00043283;-4.5E-7;0;Globalstar
12.24738003;0.0002781;52.0004;330.5259;7.6389;352.4503;0.0003838;-5.1E-7;0;Globalstar
12.24738198;0.0002789;52.0002;327.747;10.1958;349.8947;0.0003873;-5.0E-7;0;Globalstar
12.2473827;0.0002787;52;324.7366;12.6087;347.4831;0.00031803;-5.8E-7;0;Globalstar
12.24738312;0.0002788;51.9998;322.1892;14.7047;345.3883;0.0002749;-6.3E-7;0;Globalstar
12.24738361;0.0002796;51.9996;320.1051;16.2912;343.8027;0.00029888;-6.0E-7;0;Globalstar
12.24738313;0.0002796;51.9995;318.9472;17.4366;342.6579;0.00023488;-6.7E-7;0;Globalstar
12.24738319;0.0002798;51.9995;318.484;17.8641;342.2306;0.00023935;-6.7E-7;0;Globalstar
12.24738316;0.0002805;51.9994;316.1683;19.7883;340.3075;0.00022819;-6.8E-7;0;Globalstar
12.24738308;0.0002804;51.9993;315.9367;19.9116;340.1842;0.00022219;-6.8E-7;0;Globalstar
12.24738428;0.0002805;51.9996;313.389;21.7433;338.3535;0.00031182;-5.9E-7;0;Globalstar
12.24738266;0.0002824;51.9991;310.6103;24.3096;335.7886;0.00014412;-7.7E-7;0;Globalstar
12.24738204;0.0002829;51.9993;307.5995;26.0623;334.0368;-2.1787E-5;-9.5E-7;0;Globalstar
12.24738152;0.0002834;51.9992;305.2836;27.8781;332.222;-7.5086E-5;-1.01E-6;0;Globalstar
12.24737979;0.0002844;51.999;302.0414;30.3298;329.7716;-0.00019372;-1.14E-6;0;Globalstar
12.24737981;0.0002848;51.999;301.8098;30.4729;329.6285;-0.00018784;-1.14E-6;0;Globalstar
12.24737928;0.0002879;51.9987;296.2518;34.3649;325.7386;-0.00017793;-1.12E-6;0;Globalstar
12.24737921;0.0002878;51.9986;294.6307;35.5767;324.5274;-0.00018305;-1.13E-6;0;Globalstar
12.24737924;0.000288;51.9986;293.4728;36.4734;323.6311;-0.0001729;-1.12E-6;0;Globalstar
12.24737902;0.0002881;51.9985;291.8517;37.6368;322.4682;-0.00017902;-1.13E-6;0;Globalstar
12.24737877;0.0002875;51.9985;290.9253;38.42;321.6854;-0.00019049;-1.14E-6;0;Globalstar
12.24737891;0.0002872;51.9985;290.6937;38.6634;321.442;-0.00018626;-1.13E-6;0;Globalstar
12.2473788;0.0002874;51.9983;287.9145;40.6424;319.4639;-0.00015598;-1.1E-6;0;Globalstar
12.24737864;0.0002884;51.9983;285.5986;42.2446;317.8625;-0.00014529;-1.09E-6;0;Globalstar
12.24737879;0.0002884;51.9982;283.2827;43.8715;316.2363;-9.8231E-5;-1.04E-6;0;Globalstar
12.24737861;0.0002891;51.9981;280.5036;45.7984;314.3103;-0.00010165;-1.04E-6;0;Globalstar
12.24737909;0.0002903;51.9981;278.1877;47.3197;312.7897;-4.954E-5;-9.8E-7;0;Globalstar
12.24737903;0.000291;51.9981;276.7982;48.2156;311.8941;-4.1413E-5;-9.7E-7;0;Globalstar
12.24737929;0.0002914;51.998;274.2507;49.9464;310.1641;-1.1298E-5;-9.4E-7;0;Globalstar
12.2473793;0.0002927;51.9976;271.0081;52.4113;307.7002;0.00016101;-7.5E-7;0;Globalstar
12.2473796;0.0002918;51.9977;267.9974;54.5232;305.589;0.0001042;-8.1E-7;0;Globalstar
12.24737982;0.0002903;51.9977;265.6815;56.235;303.8776;3.1165E-5;-8.9E-7;0;Globalstar
12.24738022;0.0002906;51.9977;262.4392;58.4649;301.6484;-4.1589E-5;-9.7E-7;0;Globalstar
12.24738094;0.0002901;51.9977;259.6602;60.2626;299.8512;-3.12E-5;-9.6E-7;0;Globalstar
12.24738113;0.0002901;51.9977;256.8812;61.9203;298.1939;-3.3709E-5;-9.7E-7;0;Globalstar
12.24738143;0.0002882;51.9977;254.1022;63.625;296.4895;1.5462E-5;-9.1E-7;0;Globalstar
12.24738148;0.0002882;51.9977;253.8707;63.7528;296.3617;2.3029E-5;-9.0E-7;0;Globalstar
12.24738196;0.0002876;51.9977;251.0916;65.408;294.7069;0.00013704;-7.8E-7;0;Globalstar
12.24738214;0.000288;51.9978;248.3126;67.1611;292.9542;0.00022334;-6.8E-7;0;Globalstar
12.24738222;0.000287;51.9979;245.9967;68.6087;291.5068;0.00022681;-6.8E-7;0;Globalstar
12.24738289;0.0002862;51.998;243.4493;70.1892;289.9266;0.00028781;-6.1E-7;0;Globalstar
12.2473828;0.000286;51.998;243.2178;70.3319;289.7839;0.00028112;-6.2E-7;0;Globalstar
12.24738311;0.0002856;51.998;241.8284;71.1361;288.9798;0.00027899;-6.2E-7;0;Globalstar
12.24738334;0.0002854;51.998;241.3652;71.4407;288.6752;0.00030783;-5.9E-7;0;Globalstar
12.24738322;0.0002835;51.9982;237.8915;73.73;286.3861;0.00017251;-7.4E-7;0;Globalstar
12.24738411;0.000282;51.9982;234.1864;75.9115;284.2048;0.00017182;-7.4E-7;0;Globalstar
12.24738417;0.0002803;51.9982;231.4076;77.7149;282.4014;0.00010029;-8.2E-7;0;Globalstar
12.24738373;0.0002794;51.9982;229.3235;78.9742;281.1422;-7.5392E-6;-9.4E-7;0;Globalstar
12.24738399;0.0002792;51.9982;228.6288;79.354;280.7623;2.1695E-5;-9.1E-7;0;Globalstar
12.24738382;0.0002775;51.9981;225.85;81.0547;279.0616;-3.4088E-5;-9.7E-7;0;Globalstar
12.24738302;0.0002758;51.9981;222.6079;83.0146;277.1017;-0.00015496;-1.1E-6;0;Globalstar
12.24738353;0.0002741;51.9983;220.7553;84.1126;276.0036;2.1305E-5;-9.1E-7;0;Globalstar
12.24738396;0.0002725;51.9983;217.9764;85.843;274.2731;2.1688E-5;-9.1E-7;0;Globalstar
12.24738388;0.0002724;51.9982;217.5132;86.0951;274.021;2.8819E-5;-9.0E-7;0;Globalstar
12.24738335;0.0002724;51.9978;215.1976;87.5966;272.5196;2.3604E-5;-9.0E-7;0;Globalstar
12.24738343;0.0002723;51.9978;214.7344;87.8441;272.272;5.3403E-5;-8.7E-7;0;Globalstar
12.2473839;0.0002694;51.9981;212.1871;89.3691;270.7468;3.3639E-5;-8.9E-7;0;Globalstar
12.24738353;0.0002699;51.9978;211.724;89.6534;270.4625;0.00014932;-7.7E-7;0;Globalstar
12.24738413;0.000267;51.998;208.7135;91.4277;268.6879;5.0942E-5;-8.7E-7;0;Globalstar
12.24738423;0.0002662;51.998;205.9346;93.0301;267.0853;8.966E-5;-8.3E-7;0;Globalstar
12.24738359;0.0002647;51.9979;203.1557;94.6403;265.4749;-1.1205E-5;-9.4E-7;0;Globalstar
12.24738425;0.0002623;51.9976;197.8295;97.6806;262.4342;7.8185E-5;-8.4E-7;0;Globalstar
12.247385;0.0002611;51.9972;194.8193;99.4198;260.6947;2.1045E-5;-9.1E-7;0;Globalstar
12.24738511;0.0002604;51.9971;193.4298;100.2402;259.8741;-1.2825E-5;-9.4E-7;0;Globalstar
12.24738526;0.0002601;51.9971;192.5036;100.7875;259.3267;-4.3441E-6;-9.3E-7;0;Globalstar
12.24738548;0.0002598;51.997;192.0404;101.0532;259.0609;1.0234E-5;-9.2E-7;0;Globalstar
12.24738611;0.0002583;51.9968;189.4931;102.4981;257.6158;8.2547E-5;-8.4E-7;0;Globalstar
12.24738627;0.0002581;51.9968;189.2615;102.6131;257.5007;9.9542E-5;-8.2E-7;0;Globalstar
12.2473865;0.000257;51.9966;186.4825;104.1648;255.9487;0.00015578;-7.6E-7;0;Globalstar
12.24738712;0.0002551;51.9965;183.7035;105.7579;254.3552;0.00028714;-6.1E-7;0;Globalstar
12.24738727;0.0002541;51.9964;181.3877;107.0528;253.06;0.00033175;-5.6E-7;0;Globalstar
12.24738755;0.0002536;51.9963;180.6929;107.3975;252.7151;0.00035964;-5.3E-7;0;Globalstar
12.24738819;0.0002521;51.9963;177.9139;109.0044;251.1079;0.00041515;-4.7E-7;0;Globalstar
12.24738896;0.0002506;51.9962;175.1349;110.5592;249.5526;0.00042815;-4.6E-7;0;Globalstar
12.24738979;0.0002492;51.9961;172.3558;112.1612;247.9502;0.0004023;-4.9E-7;0;Globalstar
12.24739048;0.0002482;51.9961;169.5768;113.7415;246.3695;0.00033913;-5.6E-7;0;Globalstar
12.2473908;0.000247;51.996;166.7978;115.411;244.6995;0.0002316;-6.7E-7;0;Globalstar
12.24739081;0.0002456;51.9959;164.0187;116.9962;243.1139;0.00012024;-8.0E-7;0;Globalstar
12.24739078;0.0002445;51.9958;161.2397;118.6434;241.4661;4.2002E-5;-8.8E-7;0;Globalstar
12.24739085;0.0002432;51.9957;158.4606;120.237;239.872;1.0271E-5;-9.2E-7;0;Globalstar
12.24739099;0.0002424;51.9957;156.6078;121.3614;238.7472;-3.9246E-6;-9.3E-7;0;Globalstar
12.2473912;0.0002418;51.9956;155.4498;121.9331;238.1753;2.8024E-5;-9.0E-7;0;Globalstar
12.24739127;0.0002404;51.9956;152.6707;123.3177;236.7903;4.1745E-5;-8.8E-7;0;Globalstar
12.24739197;0.000239;51.9957;149.8916;124.7327;235.3748;0.00014024;-7.7E-7;0;Globalstar
12.24739251;0.0002378;51.9958;147.1125;126.1917;233.9153;0.00021413;-6.9E-7;0;Globalstar
12.24739267;0.0002368;51.9959;144.3334;127.5887;232.5177;0.00024838;-6.6E-7;0;Globalstar
12.24739277;0.000236;51.9959;142.9439;128.3888;231.7174;0.00025344;-6.5E-7;0;Globalstar
12.24739299;0.0002358;51.996;141.7859;129.2506;230.8553;0.0002685;-6.3E-7;0;Globalstar
12.2473933;0.0002342;51.9962;138.7753;131.2229;228.8823;0.00023989;-6.7E-7;0;Globalstar
12.24739308;0.0002331;51.9963;135.9962;132.6179;227.4867;0.00013383;-7.8E-7;0;Globalstar
12.24739347;0.0002315;51.9964;132.9856;134.4566;225.6473;5.8699E-5;-8.6E-7;0;Globalstar
12.24739344;0.0002309;51.9965;130.9014;135.574;224.5295;-2.04E-5;-9.5E-7;0;Globalstar
12.24739362;0.0002306;51.9965;130.2066;136.0341;224.0692;-3.4242E-5;-9.7E-7;0;Globalstar
12.24739377;0.0002292;51.9967;126.2695;138.3948;221.7076;-0.00013494;-1.08E-6;0;Globalstar
12.24739367;0.0002289;51.9968;124.6484;139.0845;221.0176;-0.00015883;-1.1E-6;0;Globalstar
12.24739377;0.0002278;51.9969;121.8693;140.5508;219.5508;-0.00012117;-1.06E-6;0;Globalstar
12.24739404;0.0002256;51.9972;117.7008;142.9421;217.1584;1.5362E-5;-9.1E-7;0;Globalstar
12.24739397;0.000225;51.9974;116.3113;143.507;216.5933;5.2786E-5;-8.7E-7;0;Globalstar
12.24739399;0.0002239;51.9976;113.5323;145.0826;215.017;0.00011913;-8.0E-7;0;Globalstar
12.24739439;0.0002224;51.998;109.1323;147.6691;212.4295;0.00015627;-7.6E-7;0;Globalstar
12.24739444;0.0002226;51.9981;107.9744;148.0584;212.0401;0.00016016;-7.5E-7;0;Globalstar
12.2473944;0.0002211;51.9984;105.1956;149.7325;210.3652;7.5616E-5;-8.5E-7;0;Globalstar
